COSMOS 1892             
1 18421U 87088A   21166.36694447  .00000848  00000-0  40429-4 0  9999
2 18421  82.5005 274.2337 0013419 242.2789 117.7084 15.17663006839584
SL-14 R/B               
1 18749U 88001B   21166.56552869  .00000064  00000-0  49047-5 0  9997
2 18749  82.5144  17.3503 0018755 176.9538 241.5729 14.83262325785690
COSMOS 1933             
1 18958U 88020A   21166.43199073  .00000042  00000-0  94033-6 0  9992
2 18958  82.5284 135.0399 0011543   5.7218 354.4137 15.03933843789638
SL-3 R/B                
1 19046U 88032B   21166.60805986 -.00000324  00000-0 -19386-4 0  9991
2 19046  97.3874 177.2326 0039132  51.3757 309.0961 15.02945576791508
SL-16 R/B               
1 19120U 88039B   21166.38331059 -.00000093  00000-0 -21567-4 0  9998
2 19120  71.0128 121.6304 0019907 113.0432 247.2795 14.19220655713148
COSMOS 1953             
1 19210U 88050A   21166.19809142  .00000068  00000-0  26463-5 0  9994
2 19210  82.5183  57.6522 0012040 324.0237  36.0179 15.06288267776266
SL-8 R/B                
1 19257U 88053B   21166.46036303  .00000042  00000-0  22883-4 0  9992
2 19257  74.0499  53.4895 0021240 301.0031 231.9996 14.37522353728168
COSMOS 1975             
1 19573U 88093A   21166.57034010  .00000598  00000-0  39866-4 0  9997
2 19573  82.5191  12.3933 0014625  11.8252 348.3315 15.05181596758122
SL-14 R/B               
1 19574U 88093B   21166.62183028  .00000073  00000-0  59261-5 0  9998
2 19574  82.5326 220.4354 0021200 348.6791 123.9769 14.83373369744703
SL-16 R/B               
1 19650U 88102B   21166.49819227 -.00000084  00000-0 -18451-4 0  9995
2 19650  70.9986 186.4968 0012332 127.2994 232.9255 14.15807193682260
INTERCOSMOS 24          
1 20261U 89080A   21166.45407701  .00000204  00000-0  59296-4 0  9991
2 20261  82.6037 145.3774 1201750 330.2547  23.5099 12.56212503449574
SL-14 R/B               
1 20262U 89080C   21166.54652391  .00000039  00000-0  48699-5 0  9991
2 20262  82.5928 201.3364 1237164 169.1824 193.8742 12.48970372444315
DELTA 2 R/B(1)          
1 20303U 89085B   21166.57354107  .00002276  00000-0  71235-4 0  9995
2 20303  35.6419 246.4932 0090419 169.5547 190.7083 15.29208884724185
DELTA 1 R/B             
1 20323U 89089B   21166.53583331  .00000035  00000-0  18224-4 0  9990
2 20323  97.1215 261.1661 0072097 167.7067 192.5910 14.48404736645428
ARIANE 40 R/B           
1 20443U 90005H   21166.42058591  .00000022  00000-0  21673-4 0  9994
2 20443  98.5284 232.6893 0009981 348.0694  12.0255 14.38129535644285
DELTA 2 R/B(1)          
1 20453U 90008B   21166.57799180  .00001193  00000-0  68970-4 0  9991
2 20453  35.6238 273.5607 0276403  98.3187 264.8963 14.86535761665248
COSMOS 2058             
1 20465U 90010A   21166.40085843  .00000385  00000-0  30013-4 0  9992
2 20465  82.4893 284.0378 0016708  60.9330 299.3564 14.98220971682667
SL-14 R/B               
1 20466U 90010B   21166.26165422  .00000087  00000-0  81315-5 0  9990
2 20466  82.5038  87.2373 0019391 222.5862 137.3849 14.81426339672445
SL-14 R/B               
1 20511U 90018B   21166.39385384  .00000071  00000-0  62655-5 0  9993
2 20511  82.5239  35.1170 0017772  12.6615 160.3381 14.80081035666798
HST                     
1 20580U 90037B   21166.48015595  .00000487  00000-0  18483-4 0  9994
2 20580  28.4704  78.1346 0002772  45.5296 117.8219 15.09659122510746
SL-16 R/B               
1 20625U 90046B   21166.59788320 -.00000134  00000-0 -45112-4 0  9999
2 20625  71.0000 325.9631 0012676  43.0474 317.1638 14.14672988603972
COSMOS 2084             
1 20663U 90055A   21166.33892878  .00000020  00000-0  20155-4 0  9999
2 20663  62.7953  36.4028 0069809   6.6612 353.5393 14.92256965677502
SL-6 R/B(2)             
1 20666U 90055D   21166.59914062 -.00000020  00000-0  16473-4 0  9999
2 20666  62.7854 311.0446 0098098  34.7455 325.9993 14.92504651679497
SL-8 R/B                
1 20775U 90078B   21166.44536706  .00004028  00000-0  19193-3 0  9996
2 20775  82.9263 286.9590 0568142 148.9026 214.7148 14.35895633557807
SL-8 R/B                
1 21088U 91006B   21166.58402494  .00000075  00000-0  59892-4 0  9996
2 21088  82.9427  15.2411 0022226 191.1261 221.6811 13.77167394526194
OKEAN-3                 
1 21397U 91039A   21166.56506475  .00000252  00000-0  21588-4 0  9995
2 21397  82.5213 191.5016 0018739  38.7449 321.5111 14.93107062606426
COSMOS 2151             
1 21422U 91042A   21166.43924076  .00000193  00000-0  16302-4 0  9997
2 21422  82.5003 297.3210 0015718  99.6070 260.6927 14.92262132604967
SL-14 R/B               
1 21423U 91042B   21166.36777817  .00000068  00000-0  58858-5 0  9993
2 21423  82.4948  37.7150 0018399 146.1732 214.0659 14.79830398597332
ERS-1                   
1 21574U 91050A   21166.54803286  .00000030  00000-0  24984-4 0  9990
2 21574  98.6476 127.0405 0031846 288.5632  71.2096 14.37800709567299
ARIANE 40 R/B           
1 21610U 91050F   21166.42963869  .00000030  00000-0  22982-4 0  9998
2 21610  98.4231 237.2007 0002138 235.5243 134.8763 14.40951624569972
INTERCOSMOS 25          
1 21819U 91086A   21166.52560872 -.00000299  00000-0 -63221-4 0  9996
2 21819  82.5878 268.7117 1514639 218.2531 130.1043 12.05261632288024
SL-8 R/B                
1 21876U 92008B   21166.39900448  .00000080  00000-0  67548-4 0  9998
2 21876  82.9265 112.6650 0033372 281.3824 196.0341 13.75679929471773
SL-8 R/B                
1 21938U 92020B   21166.57201030  .00000055  00000-0  41157-4 0  9992
2 21938  82.9299 356.9794 0030609  80.9539 333.0745 13.75285316463581
COSMOS 2219             
1 22219U 92076A   21166.35738672  .00000124  00000-0  90525-4 0  9999
2 22219  71.0622  29.6025 0019711 316.3493  43.6069 14.13667613474098
SL-16 R/B               
1 22220U 92076B   21166.56374255 -.00000010  00000-0  18895-4 0  9992
2 22220  71.0002 227.2076 0014126 217.3150 245.3940 14.16472703477425
COSMOS 2221             
1 22236U 92080A   21166.35383525  .00000199  00000-0  18956-4 0  9996
2 22236  82.5074 120.7235 0016125 191.6721 168.4125 14.88060762523239
SL-16 R/B               
1 22285U 92093B   21166.57636661  .00000147  00000-0  10056-3 0  9995
2 22285  71.0228  30.7111 0002570  40.9014 319.2301 14.15064148468670
COSMOS 2228             
1 22286U 92094A   21166.45423683  .00000209  00000-0  19841-4 0  9993
2 22286  82.5210  77.3015 0020080 318.9207  41.0498 14.88285112518430
SL-16 R/B               
1 22566U 93016B   21166.55321642 -.00000070  00000-0 -11535-4 0  9992
2 22566  71.0073 243.5637 0008264  69.4172 290.7837 14.14970319457696
COSMOS 2242             
1 22626U 93024A   21166.33344625  .00000229  00000-0  22151-4 0  9990
2 22626  82.5217 105.6930 0017880 320.0374  39.9526 14.88135587522803
SL-16 R/B               
1 22803U 93059B   21166.43360488  .00000201  00000-0  12405-3 0  9991
2 22803  70.9912  54.3109 0018632 317.8630  42.1060 14.16837656434714
ARIANE 40 R/B           
1 22830U 93061H   21166.56469735 -.00000006  00000-0  14544-4 0  9994
2 22830  98.7132 224.1075 0010426 343.3854  16.6986 14.31483201446772
COSMOS 2278             
1 23087U 94023A   21166.48754584 -.00000326  00000-0 -14741-3 0  9992
2 23087  71.0522 188.8401 0007775 163.6957 196.4417 14.13828217400500
SL-16 R/B               
1 23088U 94023B   21166.20526768  .00000307  00000-0  18445-3 0  9996
2 23088  71.0004  99.7266 0002375   6.3799 353.7353 14.14691501401618
SL-16 R/B               
1 23343U 94074B   21166.60862999  .00000020  00000-0  10026-4 0  9999
2 23343  97.9459 221.2713 0008161  65.9102  55.9555 14.76884432432018
SL-16 R/B               
1 23405U 94077B   21166.36178694  .00000267  00000-0  16193-3 0  9999
2 23405  70.9838  27.3952 0004670 269.0636  90.9951 14.15240642371696
ERS-2                   
1 23560U 95021A   21166.56052744  .00000923  00000-0  41894-4 0  9996
2 23560  98.5481  16.4385 0004042  32.9581 327.1904 15.23970406397404
ARIANE 40+ R/B          
1 23561U 95021B   21166.60738722  .00000029  00000-0  24540-4 0  9995
2 23561  98.6742 216.3929 0005780 253.3380 224.1198 14.38030499370762
SL-16 R/B               
1 23705U 95058B   21166.55688484 -.00000061  00000-0 -68083-5 0  9997
2 23705  71.0218 207.1078 0014456 239.4261 120.5436 14.15154261323346
SL-16 R/B               
1 24298U 96051B   21166.60008475 -.00000156  00000-0 -58005-4 0  9998
2 24298  70.8295 224.8543 0016322 182.7214 177.3820 14.12439885277633
ORBVIEW 2 (SEASTAR)     
1 24883U 97037A   21166.33532873  .00000049  00000-0  33828-4 0  9992
2 24883  98.6423 284.4168 0003484 108.1718 251.9846 14.33617681260707
SL-16 R/B               
1 25400U 98043G   21166.39777914  .00000000  00000-0  18517-4 0  9994
2 25400  98.6403 102.2726 0010002   4.3984 355.7282 14.25477506192728
SL-16 R/B               
1 25407U 98045B   21166.55708847 -.00000290  00000-0 -12300-3 0  9996
2 25407  71.0106 214.4805 0006256 156.6710 203.4699 14.15838510182475
ISS (ZARYA)             
1 25544U 98067A   21166.68333862  .00001225  00000-0  30415-4 0  9992
2 25544  51.6442 350.1618 0003536  95.4559   0.2660 15.48988101288368
CZ-4B R/B               
1 25732U 99025C   21166.60114635 -.00000024  00000-0  10311-4 0  9993
2 25732  98.9018 203.0546 0036281 254.6183 217.2306 14.17694253143275
OKEAN-O                 
1 25860U 99039A   21166.56613686  .00000047  00000-0  14322-4 0  9995
2 25860  98.1823 197.2900 0001740 106.5209 253.6191 14.76739350179107
SL-16 R/B               
1 25861U 99039B   21166.60510073  .00000022  00000-0  10522-4 0  9998
2 25861  98.2037 181.9403 0016940  73.2167  40.6268 14.78644668181285
DELTA 2 R/B             
1 25876U 99041E   21166.56002561 -.00000140  00000-0  16159-4 0  9994
2 25876  51.7673 316.7730 0530678 323.2639  33.2986 14.04576689119656
HELIOS 1B               
1 25977U 99064A   21166.53893316  .00000047  00000-0  13045-4 0  9990
2 25977  98.3166 340.9813 0000391 159.2972 200.8256 14.82561058428918
